[{"OBJECT_NAME":"STARLINK-1400","OBJECT_ID":"2020-035AV","EPOCH":"2026-03-09T22:42:08.377920","MEAN_MOTION":15.50591902,"ECCENTRICITY":0.00079016,"INCLINATION":53.0513,"RA_OF_ASC_NODE":21.7292,"ARG_OF_PERICENTER":96.3588,"MEAN_ANOMALY":263.832,"EPHEMERIS_TYPE":0,"CLASSIFICATION_TYPE":"U","NORAD_CAT_ID":45700,"ELEMENT_SET_NO":999,"REV_AT_EPOCH":31938,"BSTAR":0.0019068504,"MEAN_MOTION_DOT":0.00112245,"MEAN_MOTION_DDOT":0},{"OBJECT_NAME":"OBJECT F","OBJECT_ID":"2023-104F","EPOCH":"2026-03-09T22:45:24.423840","MEAN_MOTION":15.4884614,"ECCENTRICITY":0.00205479,"INCLINATION":97.2662,"RA_OF_ASC_NODE":142.0402,"ARG_OF_PERICENTER":45.1611,"MEAN_ANOMALY":315.1305,"EPHEMERIS_TYPE":0,"CLASSIFICATION_TYPE":"U","NORAD_CAT_ID":57429,"ELEMENT_SET_NO":999,"REV_AT_EPOCH":14709,"BSTAR":0.00056008218,"MEAN_MOTION_DOT":0.00030376,"MEAN_MOTION_DDOT":0}]
